<?xml version="1.0" encoding="UTF-8"?>
<gpx version="1.1" creator="rastro.run" xmlns="http://www.topografix.com/GPX/1/1">
  <metadata><name>Volta na Lagoa (provisório)</name><desc>Trajeto sintético provisório — substitua pelo GPX de exemplo definitivo.</desc></metadata>
  <trk>
    <name>Volta na Lagoa (provisório)</name>
    <trkseg>
      <trkpt lat="-22.977787" lon="-43.198515"><ele>3</ele><time>2026-09-20T06:30:00.000Z</time></trkpt>
      <trkpt lat="-22.977904" lon="-43.198577"><ele>3</ele><time>2026-09-20T06:30:04.220Z</time></trkpt>
      <trkpt lat="-22.977986" lon="-43.198638"><ele>3</ele><time>2026-09-20T06:30:08.432Z</time></trkpt>
      <trkpt lat="-22.978069" lon="-43.198728"><ele>3</ele><time>2026-09-20T06:30:12.641Z</time></trkpt>
      <trkpt lat="-22.978162" lon="-43.198796"><ele>3</ele><time>2026-09-20T06:30:16.851Z</time></trkpt>
      <trkpt lat="-22.978244" lon="-43.198883"><ele>3</ele><time>2026-09-20T06:30:21.067Z</time></trkpt>
      <trkpt lat="-22.978338" lon="-43.198966"><ele>3</ele><time>2026-09-20T06:30:25.293Z</time></trkpt>
      <trkpt lat="-22.978404" lon="-43.199070"><ele>3</ele><time>2026-09-20T06:30:29.532Z</time></trkpt>
      <trkpt lat="-22.978501" lon="-43.199154"><ele>3</ele><time>2026-09-20T06:30:33.787Z</time></trkpt>
      <trkpt lat="-22.978564" lon="-43.199251"><ele>3</ele><time>2026-09-20T06:30:38.061Z</time></trkpt>
      <trkpt lat="-22.978627" lon="-43.199343"><ele>3</ele><time>2026-09-20T06:30:42.355Z</time></trkpt>
      <trkpt lat="-22.978708" lon="-43.199468"><ele>3</ele><time>2026-09-20T06:30:46.672Z</time></trkpt>
      <trkpt lat="-22.978772" lon="-43.199549"><ele>3</ele><time>2026-09-20T06:30:51.012Z</time></trkpt>
      <trkpt lat="-22.978842" lon="-43.199663"><ele>3</ele><time>2026-09-20T06:30:55.377Z</time></trkpt>
      <trkpt lat="-22.978898" lon="-43.199764"><ele>3</ele><time>2026-09-20T06:30:59.767Z</time></trkpt>
      <trkpt lat="-22.978979" lon="-43.199891"><ele>3</ele><time>2026-09-20T06:31:04.182Z</time></trkpt>
      <trkpt lat="-22.979041" lon="-43.199990"><ele>3</ele><time>2026-09-20T06:31:08.621Z</time></trkpt>
      <trkpt lat="-22.979103" lon="-43.200125"><ele>3</ele><time>2026-09-20T06:31:13.086Z</time></trkpt>
      <trkpt lat="-22.979161" lon="-43.200233"><ele>3</ele><time>2026-09-20T06:31:17.574Z</time></trkpt>
      <trkpt lat="-22.979211" lon="-43.200336"><ele>3</ele><time>2026-09-20T06:31:22.085Z</time></trkpt>
      <trkpt lat="-22.979257" lon="-43.200462"><ele>3</ele><time>2026-09-20T06:31:26.618Z</time></trkpt>
      <trkpt lat="-22.979330" lon="-43.200603"><ele>3</ele><time>2026-09-20T06:31:31.172Z</time></trkpt>
      <trkpt lat="-22.979377" lon="-43.200710"><ele>3</ele><time>2026-09-20T06:31:35.744Z</time></trkpt>
      <trkpt lat="-22.979438" lon="-43.200838"><ele>3</ele><time>2026-09-20T06:31:40.334Z</time></trkpt>
      <trkpt lat="-22.979493" lon="-43.200948"><ele>3</ele><time>2026-09-20T06:31:44.939Z</time></trkpt>
      <trkpt lat="-22.979535" lon="-43.201089"><ele>3</ele><time>2026-09-20T06:31:49.557Z</time></trkpt>
      <trkpt lat="-22.979566" lon="-43.201207"><ele>3</ele><time>2026-09-20T06:31:54.186Z</time></trkpt>
      <trkpt lat="-22.979637" lon="-43.201338"><ele>3</ele><time>2026-09-20T06:31:58.825Z</time></trkpt>
      <trkpt lat="-22.979681" lon="-43.201469"><ele>3</ele><time>2026-09-20T06:32:03.470Z</time></trkpt>
      <trkpt lat="-22.979723" lon="-43.201598"><ele>3</ele><time>2026-09-20T06:32:08.119Z</time></trkpt>
      <trkpt lat="-22.979765" lon="-43.201728"><ele>3</ele><time>2026-09-20T06:32:12.769Z</time></trkpt>
      <trkpt lat="-22.979819" lon="-43.201848"><ele>3</ele><time>2026-09-20T06:32:17.419Z</time></trkpt>
      <trkpt lat="-22.979857" lon="-43.201968"><ele>3</ele><time>2026-09-20T06:32:22.065Z</time></trkpt>
      <trkpt lat="-22.979896" lon="-43.202098"><ele>3</ele><time>2026-09-20T06:32:26.704Z</time></trkpt>
      <trkpt lat="-22.979943" lon="-43.202233"><ele>3</ele><time>2026-09-20T06:32:31.335Z</time></trkpt>
      <trkpt lat="-22.979981" lon="-43.202366"><ele>3</ele><time>2026-09-20T06:32:35.953Z</time></trkpt>
      <trkpt lat="-22.980033" lon="-43.202481"><ele>3</ele><time>2026-09-20T06:32:40.556Z</time></trkpt>
      <trkpt lat="-22.980080" lon="-43.202615"><ele>3</ele><time>2026-09-20T06:32:45.142Z</time></trkpt>
      <trkpt lat="-22.980120" lon="-43.202746"><ele>3</ele><time>2026-09-20T06:32:49.708Z</time></trkpt>
      <trkpt lat="-22.980161" lon="-43.202880"><ele>3</ele><time>2026-09-20T06:32:54.250Z</time></trkpt>
      <trkpt lat="-22.980189" lon="-43.202991"><ele>3</ele><time>2026-09-20T06:32:58.766Z</time></trkpt>
      <trkpt lat="-22.980233" lon="-43.203138"><ele>3</ele><time>2026-09-20T06:33:03.297Z</time></trkpt>
      <trkpt lat="-22.980287" lon="-43.203267"><ele>3</ele><time>2026-09-20T06:33:07.882Z</time></trkpt>
      <trkpt lat="-22.980338" lon="-43.203394"><ele>3</ele><time>2026-09-20T06:33:12.520Z</time></trkpt>
      <trkpt lat="-22.980375" lon="-43.203500"><ele>3</ele><time>2026-09-20T06:33:17.206Z</time></trkpt>
      <trkpt lat="-22.980418" lon="-43.203644"><ele>3</ele><time>2026-09-20T06:33:21.936Z</time></trkpt>
      <trkpt lat="-22.980444" lon="-43.203784"><ele>3</ele><time>2026-09-20T06:33:26.708Z</time></trkpt>
      <trkpt lat="-22.980474" lon="-43.203929"><ele>3</ele><time>2026-09-20T06:33:31.518Z</time></trkpt>
      <trkpt lat="-22.980513" lon="-43.204044"><ele>3</ele><time>2026-09-20T06:33:36.362Z</time></trkpt>
      <trkpt lat="-22.980551" lon="-43.204182"><ele>3</ele><time>2026-09-20T06:33:41.237Z</time></trkpt>
      <trkpt lat="-22.980607" lon="-43.204325"><ele>3</ele><time>2026-09-20T06:33:46.139Z</time></trkpt>
      <trkpt lat="-22.980644" lon="-43.204488"><ele>3</ele><time>2026-09-20T06:33:51.065Z</time></trkpt>
      <trkpt lat="-22.980687" lon="-43.204627"><ele>3</ele><time>2026-09-20T06:33:56.011Z</time></trkpt>
      <trkpt lat="-22.980715" lon="-43.204753"><ele>3</ele><time>2026-09-20T06:34:00.975Z</time></trkpt>
      <trkpt lat="-22.980741" lon="-43.204892"><ele>3</ele><time>2026-09-20T06:34:05.952Z</time></trkpt>
      <trkpt lat="-22.980782" lon="-43.205036"><ele>3</ele><time>2026-09-20T06:34:10.938Z</time></trkpt>
      <trkpt lat="-22.980814" lon="-43.205174"><ele>3</ele><time>2026-09-20T06:34:15.932Z</time></trkpt>
      <trkpt lat="-22.980826" lon="-43.205333"><ele>3</ele><time>2026-09-20T06:34:20.929Z</time></trkpt>
      <trkpt lat="-22.980868" lon="-43.205485"><ele>3</ele><time>2026-09-20T06:34:25.925Z</time></trkpt>
      <trkpt lat="-22.980885" lon="-43.205633"><ele>3</ele><time>2026-09-20T06:34:30.918Z</time></trkpt>
      <trkpt lat="-22.980912" lon="-43.205758"><ele>3</ele><time>2026-09-20T06:34:35.904Z</time></trkpt>
      <trkpt lat="-22.980940" lon="-43.205921"><ele>3</ele><time>2026-09-20T06:34:40.879Z</time></trkpt>
      <trkpt lat="-22.980964" lon="-43.206060"><ele>3</ele><time>2026-09-20T06:34:45.840Z</time></trkpt>
      <trkpt lat="-22.980997" lon="-43.206193"><ele>3</ele><time>2026-09-20T06:34:50.785Z</time></trkpt>
      <trkpt lat="-22.981034" lon="-43.206345"><ele>3</ele><time>2026-09-20T06:34:55.709Z</time></trkpt>
      <trkpt lat="-22.981046" lon="-43.206490"><ele>3</ele><time>2026-09-20T06:35:00.609Z</time></trkpt>
      <trkpt lat="-22.981060" lon="-43.206637"><ele>3</ele><time>2026-09-20T06:35:05.482Z</time></trkpt>
      <trkpt lat="-22.981081" lon="-43.206760"><ele>3</ele><time>2026-09-20T06:35:10.325Z</time></trkpt>
      <trkpt lat="-22.981120" lon="-43.206907"><ele>3</ele><time>2026-09-20T06:35:15.134Z</time></trkpt>
      <trkpt lat="-22.981110" lon="-43.207059"><ele>3</ele><time>2026-09-20T06:35:19.907Z</time></trkpt>
      <trkpt lat="-22.981132" lon="-43.207197"><ele>3</ele><time>2026-09-20T06:35:24.640Z</time></trkpt>
      <trkpt lat="-22.981165" lon="-43.207312"><ele>3</ele><time>2026-09-20T06:35:29.330Z</time></trkpt>
      <trkpt lat="-22.981152" lon="-43.207449"><ele>3</ele><time>2026-09-20T06:35:33.974Z</time></trkpt>
      <trkpt lat="-22.981160" lon="-43.207582"><ele>3</ele><time>2026-09-20T06:35:38.570Z</time></trkpt>
      <trkpt lat="-22.981185" lon="-43.207723"><ele>3</ele><time>2026-09-20T06:35:43.113Z</time></trkpt>
      <trkpt lat="-22.981183" lon="-43.207871"><ele>3</ele><time>2026-09-20T06:35:47.602Z</time></trkpt>
      <trkpt lat="-22.981198" lon="-43.207983"><ele>3</ele><time>2026-09-20T06:35:52.033Z</time></trkpt>
      <trkpt lat="-22.981202" lon="-43.208131"><ele>3</ele><time>2026-09-20T06:35:56.403Z</time></trkpt>
      <trkpt lat="-22.981200" lon="-43.208239"><ele>3</ele><time>2026-09-20T06:36:00.711Z</time></trkpt>
      <trkpt lat="-22.981198" lon="-43.208381"><ele>3</ele><time>2026-09-20T06:36:04.954Z</time></trkpt>
      <trkpt lat="-22.981205" lon="-43.208493"><ele>3</ele><time>2026-09-20T06:36:09.128Z</time></trkpt>
      <trkpt lat="-22.981199" lon="-43.208615"><ele>3</ele><time>2026-09-20T06:36:13.250Z</time></trkpt>
      <trkpt lat="-22.981197" lon="-43.208752"><ele>3</ele><time>2026-09-20T06:36:17.337Z</time></trkpt>
      <trkpt lat="-22.981170" lon="-43.208848"><ele>3</ele><time>2026-09-20T06:36:21.391Z</time></trkpt>
      <trkpt lat="-22.981165" lon="-43.208977"><ele>3</ele><time>2026-09-20T06:36:25.415Z</time></trkpt>
      <trkpt lat="-22.981175" lon="-43.209086"><ele>3</ele><time>2026-09-20T06:36:29.409Z</time></trkpt>
      <trkpt lat="-22.981165" lon="-43.209211"><ele>3</ele><time>2026-09-20T06:36:33.377Z</time></trkpt>
      <trkpt lat="-22.981140" lon="-43.209332"><ele>3</ele><time>2026-09-20T06:36:37.319Z</time></trkpt>
      <trkpt lat="-22.981113" lon="-43.209438"><ele>3</ele><time>2026-09-20T06:36:41.237Z</time></trkpt>
      <trkpt lat="-22.981119" lon="-43.209561"><ele>3</ele><time>2026-09-20T06:36:45.134Z</time></trkpt>
      <trkpt lat="-22.981102" lon="-43.209675"><ele>3</ele><time>2026-09-20T06:36:49.010Z</time></trkpt>
      <trkpt lat="-22.981072" lon="-43.209781"><ele>3</ele><time>2026-09-20T06:36:52.868Z</time></trkpt>
      <trkpt lat="-22.981052" lon="-43.209895"><ele>3</ele><time>2026-09-20T06:36:56.709Z</time></trkpt>
      <trkpt lat="-22.981034" lon="-43.210000"><ele>3</ele><time>2026-09-20T06:37:00.534Z</time></trkpt>
      <trkpt lat="-22.981021" lon="-43.210110"><ele>3</ele><time>2026-09-20T06:37:04.346Z</time></trkpt>
      <trkpt lat="-22.980980" lon="-43.210233"><ele>3</ele><time>2026-09-20T06:37:08.145Z</time></trkpt>
      <trkpt lat="-22.980949" lon="-43.210344"><ele>3</ele><time>2026-09-20T06:37:11.933Z</time></trkpt>
      <trkpt lat="-22.980936" lon="-43.210449"><ele>3</ele><time>2026-09-20T06:37:15.712Z</time></trkpt>
      <trkpt lat="-22.980901" lon="-43.210545"><ele>3</ele><time>2026-09-20T06:37:19.482Z</time></trkpt>
      <trkpt lat="-22.980861" lon="-43.210669"><ele>3</ele><time>2026-09-20T06:37:23.246Z</time></trkpt>
      <trkpt lat="-22.980825" lon="-43.210753"><ele>3</ele><time>2026-09-20T06:37:27.004Z</time></trkpt>
      <trkpt lat="-22.980800" lon="-43.210856"><ele>3</ele><time>2026-09-20T06:37:30.757Z</time></trkpt>
      <trkpt lat="-22.980786" lon="-43.210959"><ele>3</ele><time>2026-09-20T06:37:34.507Z</time></trkpt>
      <trkpt lat="-22.980734" lon="-43.211069"><ele>3</ele><time>2026-09-20T06:37:38.255Z</time></trkpt>
      <trkpt lat="-22.980689" lon="-43.211174"><ele>3</ele><time>2026-09-20T06:37:42.001Z</time></trkpt>
      <trkpt lat="-22.980675" lon="-43.211298"><ele>3</ele><time>2026-09-20T06:37:45.748Z</time></trkpt>
      <trkpt lat="-22.980638" lon="-43.211400"><ele>3</ele><time>2026-09-20T06:37:49.495Z</time></trkpt>
      <trkpt lat="-22.980602" lon="-43.211502"><ele>3</ele><time>2026-09-20T06:37:53.244Z</time></trkpt>
      <trkpt lat="-22.980534" lon="-43.211589"><ele>3</ele><time>2026-09-20T06:37:56.996Z</time></trkpt>
      <trkpt lat="-22.980517" lon="-43.211703"><ele>3</ele><time>2026-09-20T06:38:00.751Z</time></trkpt>
      <trkpt lat="-22.980459" lon="-43.211804"><ele>3</ele><time>2026-09-20T06:38:04.511Z</time></trkpt>
      <trkpt lat="-22.980423" lon="-43.211904"><ele>3</ele><time>2026-09-20T06:38:08.276Z</time></trkpt>
      <trkpt lat="-22.980380" lon="-43.211983"><ele>3</ele><time>2026-09-20T06:38:12.046Z</time></trkpt>
      <trkpt lat="-22.980325" lon="-43.212093"><ele>3</ele><time>2026-09-20T06:38:15.823Z</time></trkpt>
      <trkpt lat="-22.980290" lon="-43.212202"><ele>3</ele><time>2026-09-20T06:38:19.607Z</time></trkpt>
      <trkpt lat="-22.980250" lon="-43.212313"><ele>3</ele><time>2026-09-20T06:38:23.399Z</time></trkpt>
      <trkpt lat="-22.980180" lon="-43.212390"><ele>3</ele><time>2026-09-20T06:38:27.199Z</time></trkpt>
      <trkpt lat="-22.980134" lon="-43.212510"><ele>3</ele><time>2026-09-20T06:38:31.009Z</time></trkpt>
      <trkpt lat="-22.980110" lon="-43.212600"><ele>3</ele><time>2026-09-20T06:38:34.828Z</time></trkpt>
      <trkpt lat="-22.980047" lon="-43.212709"><ele>3</ele><time>2026-09-20T06:38:38.656Z</time></trkpt>
      <trkpt lat="-22.980013" lon="-43.212810"><ele>3</ele><time>2026-09-20T06:38:42.496Z</time></trkpt>
      <trkpt lat="-22.979945" lon="-43.212907"><ele>3</ele><time>2026-09-20T06:38:46.359Z</time></trkpt>
      <trkpt lat="-22.979898" lon="-43.212999"><ele>3</ele><time>2026-09-20T06:38:50.259Z</time></trkpt>
      <trkpt lat="-22.979856" lon="-43.213087"><ele>3</ele><time>2026-09-20T06:38:54.192Z</time></trkpt>
      <trkpt lat="-22.979794" lon="-43.213205"><ele>3</ele><time>2026-09-20T06:38:58.158Z</time></trkpt>
      <trkpt lat="-22.979748" lon="-43.213319"><ele>3</ele><time>2026-09-20T06:39:02.154Z</time></trkpt>
      <trkpt lat="-22.979688" lon="-43.213408"><ele>3</ele><time>2026-09-20T06:39:06.179Z</time></trkpt>
      <trkpt lat="-22.979604" lon="-43.213515"><ele>3</ele><time>2026-09-20T06:39:10.229Z</time></trkpt>
      <trkpt lat="-22.979549" lon="-43.213600"><ele>3</ele><time>2026-09-20T06:39:14.303Z</time></trkpt>
      <trkpt lat="-22.979485" lon="-43.213712"><ele>3</ele><time>2026-09-20T06:39:18.400Z</time></trkpt>
      <trkpt lat="-22.979425" lon="-43.213798"><ele>3</ele><time>2026-09-20T06:39:22.516Z</time></trkpt>
      <trkpt lat="-22.979368" lon="-43.213908"><ele>3</ele><time>2026-09-20T06:39:26.650Z</time></trkpt>
      <trkpt lat="-22.979309" lon="-43.214019"><ele>3</ele><time>2026-09-20T06:39:30.800Z</time></trkpt>
      <trkpt lat="-22.979241" lon="-43.214115"><ele>3</ele><time>2026-09-20T06:39:34.964Z</time></trkpt>
      <trkpt lat="-22.979167" lon="-43.214213"><ele>3</ele><time>2026-09-20T06:39:39.139Z</time></trkpt>
      <trkpt lat="-22.979103" lon="-43.214310"><ele>3</ele><time>2026-09-20T06:39:43.325Z</time></trkpt>
      <trkpt lat="-22.979027" lon="-43.214408"><ele>3</ele><time>2026-09-20T06:39:47.518Z</time></trkpt>
      <trkpt lat="-22.978955" lon="-43.214503"><ele>3</ele><time>2026-09-20T06:39:51.716Z</time></trkpt>
      <trkpt lat="-22.978899" lon="-43.214614"><ele>3</ele><time>2026-09-20T06:39:55.919Z</time></trkpt>
      <trkpt lat="-22.978814" lon="-43.214696"><ele>3</ele><time>2026-09-20T06:40:00.122Z</time></trkpt>
      <trkpt lat="-22.978769" lon="-43.214811"><ele>3</ele><time>2026-09-20T06:40:04.326Z</time></trkpt>
      <trkpt lat="-22.978672" lon="-43.214907"><ele>3</ele><time>2026-09-20T06:40:08.527Z</time></trkpt>
      <trkpt lat="-22.978603" lon="-43.214991"><ele>3</ele><time>2026-09-20T06:40:12.724Z</time></trkpt>
      <trkpt lat="-22.978528" lon="-43.215078"><ele>3</ele><time>2026-09-20T06:40:16.914Z</time></trkpt>
      <trkpt lat="-22.978469" lon="-43.215194"><ele>3</ele><time>2026-09-20T06:40:21.096Z</time></trkpt>
      <trkpt lat="-22.978398" lon="-43.215269"><ele>3</ele><time>2026-09-20T06:40:25.267Z</time></trkpt>
      <trkpt lat="-22.978301" lon="-43.215357"><ele>3</ele><time>2026-09-20T06:40:29.427Z</time></trkpt>
      <trkpt lat="-22.978227" lon="-43.215456"><ele>3</ele><time>2026-09-20T06:40:33.572Z</time></trkpt>
      <trkpt lat="-22.978158" lon="-43.215547"><ele>3</ele><time>2026-09-20T06:40:37.701Z</time></trkpt>
      <trkpt lat="-22.978077" lon="-43.215625"><ele>3</ele><time>2026-09-20T06:40:41.812Z</time></trkpt>
      <trkpt lat="-22.978008" lon="-43.215711"><ele>3</ele><time>2026-09-20T06:40:45.903Z</time></trkpt>
      <trkpt lat="-22.977924" lon="-43.215802"><ele>3</ele><time>2026-09-20T06:40:49.973Z</time></trkpt>
      <trkpt lat="-22.977853" lon="-43.215894"><ele>3</ele><time>2026-09-20T06:40:54.019Z</time></trkpt>
      <trkpt lat="-22.977772" lon="-43.215971"><ele>3</ele><time>2026-09-20T06:40:58.041Z</time></trkpt>
      <trkpt lat="-22.977674" lon="-43.216042"><ele>3</ele><time>2026-09-20T06:41:02.035Z</time></trkpt>
      <trkpt lat="-22.977599" lon="-43.216137"><ele>3</ele><time>2026-09-20T06:41:06.000Z</time></trkpt>
      <trkpt lat="-22.977535" lon="-43.216198"><ele>3</ele><time>2026-09-20T06:41:09.936Z</time></trkpt>
      <trkpt lat="-22.977430" lon="-43.216291"><ele>3</ele><time>2026-09-20T06:41:13.839Z</time></trkpt>
      <trkpt lat="-22.977373" lon="-43.216374"><ele>3</ele><time>2026-09-20T06:41:17.709Z</time></trkpt>
      <trkpt lat="-22.977296" lon="-43.216433"><ele>3</ele><time>2026-09-20T06:41:21.544Z</time></trkpt>
      <trkpt lat="-22.977188" lon="-43.216494"><ele>3</ele><time>2026-09-20T06:41:25.342Z</time></trkpt>
      <trkpt lat="-22.977127" lon="-43.216578"><ele>3</ele><time>2026-09-20T06:41:29.121Z</time></trkpt>
      <trkpt lat="-22.977030" lon="-43.216622"><ele>3</ele><time>2026-09-20T06:41:32.899Z</time></trkpt>
      <trkpt lat="-22.976965" lon="-43.216712"><ele>3</ele><time>2026-09-20T06:41:36.675Z</time></trkpt>
      <trkpt lat="-22.976885" lon="-43.216764"><ele>3</ele><time>2026-09-20T06:41:40.449Z</time></trkpt>
      <trkpt lat="-22.976783" lon="-43.216822"><ele>3</ele><time>2026-09-20T06:41:44.221Z</time></trkpt>
      <trkpt lat="-22.976713" lon="-43.216887"><ele>3</ele><time>2026-09-20T06:41:47.992Z</time></trkpt>
      <trkpt lat="-22.976610" lon="-43.216962"><ele>3</ele><time>2026-09-20T06:41:51.761Z</time></trkpt>
      <trkpt lat="-22.976529" lon="-43.217005"><ele>3</ele><time>2026-09-20T06:41:55.528Z</time></trkpt>
      <trkpt lat="-22.976436" lon="-43.217076"><ele>3</ele><time>2026-09-20T06:41:59.293Z</time></trkpt>
      <trkpt lat="-22.976350" lon="-43.217131"><ele>3</ele><time>2026-09-20T06:42:03.056Z</time></trkpt>
      <trkpt lat="-22.976281" lon="-43.217192"><ele>3</ele><time>2026-09-20T06:42:06.817Z</time></trkpt>
      <trkpt lat="-22.976178" lon="-43.217266"><ele>3</ele><time>2026-09-20T06:42:10.577Z</time></trkpt>
      <trkpt lat="-22.976090" lon="-43.217316"><ele>3</ele><time>2026-09-20T06:42:14.334Z</time></trkpt>
      <trkpt lat="-22.976012" lon="-43.217370"><ele>3</ele><time>2026-09-20T06:42:18.090Z</time></trkpt>
      <trkpt lat="-22.975910" lon="-43.217412"><ele>3</ele><time>2026-09-20T06:42:21.844Z</time></trkpt>
      <trkpt lat="-22.975831" lon="-43.217458"><ele>3</ele><time>2026-09-20T06:42:25.597Z</time></trkpt>
      <trkpt lat="-22.975746" lon="-43.217506"><ele>3</ele><time>2026-09-20T06:42:29.348Z</time></trkpt>
      <trkpt lat="-22.975644" lon="-43.217562"><ele>3</ele><time>2026-09-20T06:42:33.098Z</time></trkpt>
      <trkpt lat="-22.975544" lon="-43.217607"><ele>3</ele><time>2026-09-20T06:42:36.847Z</time></trkpt>
      <trkpt lat="-22.975468" lon="-43.217653"><ele>3</ele><time>2026-09-20T06:42:40.594Z</time></trkpt>
      <trkpt lat="-22.975363" lon="-43.217696"><ele>3</ele><time>2026-09-20T06:42:44.341Z</time></trkpt>
      <trkpt lat="-22.975272" lon="-43.217743"><ele>3</ele><time>2026-09-20T06:42:48.088Z</time></trkpt>
      <trkpt lat="-22.975167" lon="-43.217784"><ele>3</ele><time>2026-09-20T06:42:51.834Z</time></trkpt>
      <trkpt lat="-22.975069" lon="-43.217830"><ele>3</ele><time>2026-09-20T06:42:55.580Z</time></trkpt>
      <trkpt lat="-22.974995" lon="-43.217866"><ele>3</ele><time>2026-09-20T06:42:59.326Z</time></trkpt>
      <trkpt lat="-22.974900" lon="-43.217909"><ele>3</ele><time>2026-09-20T06:43:03.073Z</time></trkpt>
      <trkpt lat="-22.974780" lon="-43.217964"><ele>3</ele><time>2026-09-20T06:43:06.821Z</time></trkpt>
      <trkpt lat="-22.974710" lon="-43.217975"><ele>3</ele><time>2026-09-20T06:43:10.570Z</time></trkpt>
      <trkpt lat="-22.974607" lon="-43.218036"><ele>3</ele><time>2026-09-20T06:43:14.320Z</time></trkpt>
      <trkpt lat="-22.974491" lon="-43.218043"><ele>3</ele><time>2026-09-20T06:43:18.072Z</time></trkpt>
      <trkpt lat="-22.974411" lon="-43.218074"><ele>3</ele><time>2026-09-20T06:43:21.827Z</time></trkpt>
      <trkpt lat="-22.974320" lon="-43.218127"><ele>3</ele><time>2026-09-20T06:43:25.584Z</time></trkpt>
      <trkpt lat="-22.974205" lon="-43.218147"><ele>3</ele><time>2026-09-20T06:43:29.345Z</time></trkpt>
      <trkpt lat="-22.974112" lon="-43.218184"><ele>3</ele><time>2026-09-20T06:43:33.109Z</time></trkpt>
      <trkpt lat="-22.974015" lon="-43.218199"><ele>3</ele><time>2026-09-20T06:43:36.877Z</time></trkpt>
      <trkpt lat="-22.973920" lon="-43.218235"><ele>3</ele><time>2026-09-20T06:43:40.651Z</time></trkpt>
      <trkpt lat="-22.973802" lon="-43.218256"><ele>3</ele><time>2026-09-20T06:43:44.429Z</time></trkpt>
      <trkpt lat="-22.973695" lon="-43.218265"><ele>3</ele><time>2026-09-20T06:43:48.213Z</time></trkpt>
      <trkpt lat="-22.973602" lon="-43.218276"><ele>3</ele><time>2026-09-20T06:43:52.004Z</time></trkpt>
      <trkpt lat="-22.973503" lon="-43.218294"><ele>3</ele><time>2026-09-20T06:43:55.802Z</time></trkpt>
      <trkpt lat="-22.973383" lon="-43.218312"><ele>3</ele><time>2026-09-20T06:43:59.614Z</time></trkpt>
      <trkpt lat="-22.973280" lon="-43.218322"><ele>3</ele><time>2026-09-20T06:44:03.449Z</time></trkpt>
      <trkpt lat="-22.973186" lon="-43.218336"><ele>3</ele><time>2026-09-20T06:44:07.306Z</time></trkpt>
      <trkpt lat="-22.973094" lon="-43.218344"><ele>3</ele><time>2026-09-20T06:44:11.185Z</time></trkpt>
      <trkpt lat="-22.972971" lon="-43.218376"><ele>3</ele><time>2026-09-20T06:44:15.086Z</time></trkpt>
      <trkpt lat="-22.972873" lon="-43.218367"><ele>3</ele><time>2026-09-20T06:44:19.009Z</time></trkpt>
      <trkpt lat="-22.972767" lon="-43.218377"><ele>3</ele><time>2026-09-20T06:44:22.953Z</time></trkpt>
      <trkpt lat="-22.972667" lon="-43.218384"><ele>3</ele><time>2026-09-20T06:44:26.918Z</time></trkpt>
      <trkpt lat="-22.972560" lon="-43.218401"><ele>3</ele><time>2026-09-20T06:44:30.905Z</time></trkpt>
      <trkpt lat="-22.972443" lon="-43.218395"><ele>3</ele><time>2026-09-20T06:44:34.912Z</time></trkpt>
      <trkpt lat="-22.972324" lon="-43.218401"><ele>3</ele><time>2026-09-20T06:44:38.939Z</time></trkpt>
      <trkpt lat="-22.972232" lon="-43.218403"><ele>3</ele><time>2026-09-20T06:44:42.986Z</time></trkpt>
      <trkpt lat="-22.972097" lon="-43.218405"><ele>3</ele><time>2026-09-20T06:44:47.054Z</time></trkpt>
      <trkpt lat="-22.972010" lon="-43.218376"><ele>3</ele><time>2026-09-20T06:44:51.141Z</time></trkpt>
      <trkpt lat="-22.971890" lon="-43.218374"><ele>3</ele><time>2026-09-20T06:44:55.247Z</time></trkpt>
      <trkpt lat="-22.971760" lon="-43.218379"><ele>3</ele><time>2026-09-20T06:44:59.373Z</time></trkpt>
      <trkpt lat="-22.971674" lon="-43.218360"><ele>3</ele><time>2026-09-20T06:45:03.517Z</time></trkpt>
      <trkpt lat="-22.971555" lon="-43.218345"><ele>3</ele><time>2026-09-20T06:45:07.679Z</time></trkpt>
      <trkpt lat="-22.971435" lon="-43.218345"><ele>3</ele><time>2026-09-20T06:45:11.860Z</time></trkpt>
      <trkpt lat="-22.971329" lon="-43.218352"><ele>3</ele><time>2026-09-20T06:45:16.058Z</time></trkpt>
      <trkpt lat="-22.971197" lon="-43.218317"><ele>3</ele><time>2026-09-20T06:45:20.274Z</time></trkpt>
      <trkpt lat="-22.971079" lon="-43.218317"><ele>3</ele><time>2026-09-20T06:45:24.507Z</time></trkpt>
      <trkpt lat="-22.970981" lon="-43.218284"><ele>3</ele><time>2026-09-20T06:45:28.757Z</time></trkpt>
      <trkpt lat="-22.970866" lon="-43.218277"><ele>3</ele><time>2026-09-20T06:45:33.023Z</time></trkpt>
      <trkpt lat="-22.970733" lon="-43.218264"><ele>3</ele><time>2026-09-20T06:45:37.305Z</time></trkpt>
      <trkpt lat="-22.970624" lon="-43.218226"><ele>3</ele><time>2026-09-20T06:45:41.603Z</time></trkpt>
      <trkpt lat="-22.970502" lon="-43.218215"><ele>3</ele><time>2026-09-20T06:45:45.916Z</time></trkpt>
      <trkpt lat="-22.970388" lon="-43.218182"><ele>3</ele><time>2026-09-20T06:45:50.244Z</time></trkpt>
      <trkpt lat="-22.970267" lon="-43.218159"><ele>3</ele><time>2026-09-20T06:45:54.587Z</time></trkpt>
      <trkpt lat="-22.970171" lon="-43.218135"><ele>3</ele><time>2026-09-20T06:45:58.945Z</time></trkpt>
      <trkpt lat="-22.970054" lon="-43.218107"><ele>3</ele><time>2026-09-20T06:46:03.316Z</time></trkpt>
      <trkpt lat="-22.969942" lon="-43.218073"><ele>3</ele><time>2026-09-20T06:46:07.701Z</time></trkpt>
      <trkpt lat="-22.969811" lon="-43.218043"><ele>3</ele><time>2026-09-20T06:46:12.100Z</time></trkpt>
      <trkpt lat="-22.969700" lon="-43.218012"><ele>3</ele><time>2026-09-20T06:46:16.511Z</time></trkpt>
      <trkpt lat="-22.969572" lon="-43.217979"><ele>3</ele><time>2026-09-20T06:46:20.935Z</time></trkpt>
      <trkpt lat="-22.969474" lon="-43.217967"><ele>3</ele><time>2026-09-20T06:46:25.372Z</time></trkpt>
      <trkpt lat="-22.969364" lon="-43.217926"><ele>3</ele><time>2026-09-20T06:46:29.821Z</time></trkpt>
      <trkpt lat="-22.969223" lon="-43.217877"><ele>3</ele><time>2026-09-20T06:46:34.281Z</time></trkpt>
      <trkpt lat="-22.969106" lon="-43.217837"><ele>3</ele><time>2026-09-20T06:46:38.752Z</time></trkpt>
      <trkpt lat="-22.968991" lon="-43.217789"><ele>3</ele><time>2026-09-20T06:46:43.235Z</time></trkpt>
      <trkpt lat="-22.968881" lon="-43.217767"><ele>3</ele><time>2026-09-20T06:46:47.758Z</time></trkpt>
      <trkpt lat="-22.968768" lon="-43.217715"><ele>3</ele><time>2026-09-20T06:46:52.349Z</time></trkpt>
      <trkpt lat="-22.968637" lon="-43.217667"><ele>3</ele><time>2026-09-20T06:46:57.005Z</time></trkpt>
      <trkpt lat="-22.968528" lon="-43.217620"><ele>3</ele><time>2026-09-20T06:47:01.722Z</time></trkpt>
      <trkpt lat="-22.968410" lon="-43.217572"><ele>3</ele><time>2026-09-20T06:47:06.497Z</time></trkpt>
      <trkpt lat="-22.968271" lon="-43.217515"><ele>3</ele><time>2026-09-20T06:47:11.326Z</time></trkpt>
      <trkpt lat="-22.968162" lon="-43.217475"><ele>3</ele><time>2026-09-20T06:47:16.207Z</time></trkpt>
      <trkpt lat="-22.968029" lon="-43.217411"><ele>3</ele><time>2026-09-20T06:47:21.135Z</time></trkpt>
      <trkpt lat="-22.967903" lon="-43.217346"><ele>3</ele><time>2026-09-20T06:47:26.107Z</time></trkpt>
      <trkpt lat="-22.967776" lon="-43.217307"><ele>3</ele><time>2026-09-20T06:47:31.121Z</time></trkpt>
      <trkpt lat="-22.967648" lon="-43.217241"><ele>3</ele><time>2026-09-20T06:47:36.172Z</time></trkpt>
      <trkpt lat="-22.967536" lon="-43.217180"><ele>3</ele><time>2026-09-20T06:47:41.257Z</time></trkpt>
      <trkpt lat="-22.967409" lon="-43.217130"><ele>3</ele><time>2026-09-20T06:47:46.373Z</time></trkpt>
      <trkpt lat="-22.967267" lon="-43.217063"><ele>3</ele><time>2026-09-20T06:47:51.516Z</time></trkpt>
      <trkpt lat="-22.967139" lon="-43.216982"><ele>3</ele><time>2026-09-20T06:47:56.684Z</time></trkpt>
      <trkpt lat="-22.967020" lon="-43.216931"><ele>3</ele><time>2026-09-20T06:48:01.872Z</time></trkpt>
      <trkpt lat="-22.966899" lon="-43.216863"><ele>3</ele><time>2026-09-20T06:48:07.078Z</time></trkpt>
      <trkpt lat="-22.966774" lon="-43.216802"><ele>3</ele><time>2026-09-20T06:48:12.298Z</time></trkpt>
      <trkpt lat="-22.966637" lon="-43.216722"><ele>3</ele><time>2026-09-20T06:48:17.529Z</time></trkpt>
      <trkpt lat="-22.966502" lon="-43.216662"><ele>3</ele><time>2026-09-20T06:48:22.768Z</time></trkpt>
      <trkpt lat="-22.966381" lon="-43.216580"><ele>3</ele><time>2026-09-20T06:48:28.011Z</time></trkpt>
      <trkpt lat="-22.966244" lon="-43.216516"><ele>3</ele><time>2026-09-20T06:48:33.255Z</time></trkpt>
      <trkpt lat="-22.966135" lon="-43.216436"><ele>3</ele><time>2026-09-20T06:48:38.496Z</time></trkpt>
      <trkpt lat="-22.966014" lon="-43.216364"><ele>3</ele><time>2026-09-20T06:48:43.733Z</time></trkpt>
      <trkpt lat="-22.965890" lon="-43.216277"><ele>3</ele><time>2026-09-20T06:48:48.961Z</time></trkpt>
      <trkpt lat="-22.965757" lon="-43.216194"><ele>3</ele><time>2026-09-20T06:48:54.177Z</time></trkpt>
      <trkpt lat="-22.965629" lon="-43.216110"><ele>3</ele><time>2026-09-20T06:48:59.379Z</time></trkpt>
      <trkpt lat="-22.965506" lon="-43.216038"><ele>3</ele><time>2026-09-20T06:49:04.563Z</time></trkpt>
      <trkpt lat="-22.965410" lon="-43.215950"><ele>3</ele><time>2026-09-20T06:49:09.726Z</time></trkpt>
      <trkpt lat="-22.965273" lon="-43.215870"><ele>3</ele><time>2026-09-20T06:49:14.865Z</time></trkpt>
      <trkpt lat="-22.965162" lon="-43.215778"><ele>3</ele><time>2026-09-20T06:49:19.978Z</time></trkpt>
      <trkpt lat="-22.965056" lon="-43.215692"><ele>3</ele><time>2026-09-20T06:49:25.061Z</time></trkpt>
      <trkpt lat="-22.964950" lon="-43.215605"><ele>3</ele><time>2026-09-20T06:49:30.111Z</time></trkpt>
      <trkpt lat="-22.964831" lon="-43.215546"><ele>3</ele><time>2026-09-20T06:49:35.126Z</time></trkpt>
      <trkpt lat="-22.964704" lon="-43.215436"><ele>3</ele><time>2026-09-20T06:49:40.103Z</time></trkpt>
      <trkpt lat="-22.964607" lon="-43.215352"><ele>3</ele><time>2026-09-20T06:49:45.040Z</time></trkpt>
      <trkpt lat="-22.964502" lon="-43.215278"><ele>3</ele><time>2026-09-20T06:49:49.933Z</time></trkpt>
      <trkpt lat="-22.964409" lon="-43.215173"><ele>3</ele><time>2026-09-20T06:49:54.781Z</time></trkpt>
      <trkpt lat="-22.964293" lon="-43.215082"><ele>3</ele><time>2026-09-20T06:49:59.580Z</time></trkpt>
      <trkpt lat="-22.964186" lon="-43.214998"><ele>3</ele><time>2026-09-20T06:50:04.330Z</time></trkpt>
      <trkpt lat="-22.964117" lon="-43.214914"><ele>3</ele><time>2026-09-20T06:50:09.064Z</time></trkpt>
      <trkpt lat="-22.964006" lon="-43.214807"><ele>3</ele><time>2026-09-20T06:50:13.819Z</time></trkpt>
      <trkpt lat="-22.963905" lon="-43.214715"><ele>3</ele><time>2026-09-20T06:50:18.594Z</time></trkpt>
      <trkpt lat="-22.963829" lon="-43.214616"><ele>3</ele><time>2026-09-20T06:50:23.387Z</time></trkpt>
      <trkpt lat="-22.963707" lon="-43.214516"><ele>3</ele><time>2026-09-20T06:50:28.197Z</time></trkpt>
      <trkpt lat="-22.963622" lon="-43.214412"><ele>3</ele><time>2026-09-20T06:50:33.021Z</time></trkpt>
      <trkpt lat="-22.963543" lon="-43.214318"><ele>3</ele><time>2026-09-20T06:50:37.858Z</time></trkpt>
      <trkpt lat="-22.963441" lon="-43.214213"><ele>3</ele><time>2026-09-20T06:50:42.707Z</time></trkpt>
      <trkpt lat="-22.963367" lon="-43.214114"><ele>3</ele><time>2026-09-20T06:50:47.566Z</time></trkpt>
      <trkpt lat="-22.963258" lon="-43.213995"><ele>3</ele><time>2026-09-20T06:50:52.433Z</time></trkpt>
      <trkpt lat="-22.963179" lon="-43.213885"><ele>3</ele><time>2026-09-20T06:50:57.307Z</time></trkpt>
      <trkpt lat="-22.963073" lon="-43.213783"><ele>3</ele><time>2026-09-20T06:51:02.185Z</time></trkpt>
      <trkpt lat="-22.962995" lon="-43.213679"><ele>3</ele><time>2026-09-20T06:51:07.067Z</time></trkpt>
      <trkpt lat="-22.962921" lon="-43.213580"><ele>3</ele><time>2026-09-20T06:51:11.949Z</time></trkpt>
      <trkpt lat="-22.962831" lon="-43.213461"><ele>3</ele><time>2026-09-20T06:51:16.832Z</time></trkpt>
      <trkpt lat="-22.962744" lon="-43.213360"><ele>3</ele><time>2026-09-20T06:51:21.712Z</time></trkpt>
      <trkpt lat="-22.962653" lon="-43.213224"><ele>3</ele><time>2026-09-20T06:51:26.589Z</time></trkpt>
      <trkpt lat="-22.962589" lon="-43.213131"><ele>3</ele><time>2026-09-20T06:51:31.460Z</time></trkpt>
      <trkpt lat="-22.962506" lon="-43.213000"><ele>3</ele><time>2026-09-20T06:51:36.324Z</time></trkpt>
      <trkpt lat="-22.962431" lon="-43.212893"><ele>3</ele><time>2026-09-20T06:51:41.178Z</time></trkpt>
      <trkpt lat="-22.962352" lon="-43.212784"><ele>3</ele><time>2026-09-20T06:51:46.022Z</time></trkpt>
      <trkpt lat="-22.962269" lon="-43.212656"><ele>3</ele><time>2026-09-20T06:51:50.854Z</time></trkpt>
      <trkpt lat="-22.962198" lon="-43.212536"><ele>3</ele><time>2026-09-20T06:51:55.671Z</time></trkpt>
      <trkpt lat="-22.962123" lon="-43.212420"><ele>3</ele><time>2026-09-20T06:52:00.472Z</time></trkpt>
      <trkpt lat="-22.962042" lon="-43.212287"><ele>3</ele><time>2026-09-20T06:52:05.256Z</time></trkpt>
      <trkpt lat="-22.961976" lon="-43.212181"><ele>3</ele><time>2026-09-20T06:52:10.020Z</time></trkpt>
      <trkpt lat="-22.961914" lon="-43.212046"><ele>3</ele><time>2026-09-20T06:52:14.763Z</time></trkpt>
      <trkpt lat="-22.961848" lon="-43.211943"><ele>3</ele><time>2026-09-20T06:52:19.484Z</time></trkpt>
      <trkpt lat="-22.961794" lon="-43.211834"><ele>3</ele><time>2026-09-20T06:52:24.180Z</time></trkpt>
      <trkpt lat="-22.961715" lon="-43.211714"><ele>3</ele><time>2026-09-20T06:52:28.850Z</time></trkpt>
      <trkpt lat="-22.961672" lon="-43.211591"><ele>3</ele><time>2026-09-20T06:52:33.492Z</time></trkpt>
      <trkpt lat="-22.961613" lon="-43.211454"><ele>3</ele><time>2026-09-20T06:52:38.105Z</time></trkpt>
      <trkpt lat="-22.961558" lon="-43.211346"><ele>3</ele><time>2026-09-20T06:52:42.688Z</time></trkpt>
      <trkpt lat="-22.961498" lon="-43.211211"><ele>3</ele><time>2026-09-20T06:52:47.238Z</time></trkpt>
      <trkpt lat="-22.961431" lon="-43.211094"><ele>3</ele><time>2026-09-20T06:52:51.754Z</time></trkpt>
      <trkpt lat="-22.961377" lon="-43.210992"><ele>3</ele><time>2026-09-20T06:52:56.235Z</time></trkpt>
      <trkpt lat="-22.961329" lon="-43.210846"><ele>3</ele><time>2026-09-20T06:53:00.680Z</time></trkpt>
      <trkpt lat="-22.961302" lon="-43.210725"><ele>3</ele><time>2026-09-20T06:53:05.086Z</time></trkpt>
      <trkpt lat="-22.961257" lon="-43.210629"><ele>3</ele><time>2026-09-20T06:53:09.452Z</time></trkpt>
      <trkpt lat="-22.961201" lon="-43.210486"><ele>3</ele><time>2026-09-20T06:53:13.778Z</time></trkpt>
      <trkpt lat="-22.961158" lon="-43.210387"><ele>3</ele><time>2026-09-20T06:53:18.090Z</time></trkpt>
      <trkpt lat="-22.961112" lon="-43.210250"><ele>3</ele><time>2026-09-20T06:53:22.414Z</time></trkpt>
      <trkpt lat="-22.961094" lon="-43.210130"><ele>3</ele><time>2026-09-20T06:53:26.750Z</time></trkpt>
      <trkpt lat="-22.961039" lon="-43.210029"><ele>3</ele><time>2026-09-20T06:53:31.096Z</time></trkpt>
      <trkpt lat="-22.961019" lon="-43.209887"><ele>3</ele><time>2026-09-20T06:53:35.452Z</time></trkpt>
      <trkpt lat="-22.960975" lon="-43.209777"><ele>3</ele><time>2026-09-20T06:53:39.817Z</time></trkpt>
      <trkpt lat="-22.960935" lon="-43.209638"><ele>3</ele><time>2026-09-20T06:53:44.189Z</time></trkpt>
      <trkpt lat="-22.960919" lon="-43.209517"><ele>3</ele><time>2026-09-20T06:53:48.567Z</time></trkpt>
      <trkpt lat="-22.960864" lon="-43.209382"><ele>3</ele><time>2026-09-20T06:53:52.951Z</time></trkpt>
      <trkpt lat="-22.960845" lon="-43.209265"><ele>3</ele><time>2026-09-20T06:53:57.340Z</time></trkpt>
      <trkpt lat="-22.960814" lon="-43.209152"><ele>3</ele><time>2026-09-20T06:54:01.731Z</time></trkpt>
      <trkpt lat="-22.960805" lon="-43.209025"><ele>3</ele><time>2026-09-20T06:54:06.125Z</time></trkpt>
      <trkpt lat="-22.960780" lon="-43.208881"><ele>3</ele><time>2026-09-20T06:54:10.520Z</time></trkpt>
      <trkpt lat="-22.960742" lon="-43.208760"><ele>3</ele><time>2026-09-20T06:54:14.915Z</time></trkpt>
      <trkpt lat="-22.960735" lon="-43.208632"><ele>3</ele><time>2026-09-20T06:54:19.308Z</time></trkpt>
      <trkpt lat="-22.960730" lon="-43.208498"><ele>3</ele><time>2026-09-20T06:54:23.700Z</time></trkpt>
      <trkpt lat="-22.960711" lon="-43.208384"><ele>3</ele><time>2026-09-20T06:54:28.088Z</time></trkpt>
      <trkpt lat="-22.960692" lon="-43.208235"><ele>3</ele><time>2026-09-20T06:54:32.471Z</time></trkpt>
      <trkpt lat="-22.960673" lon="-43.208101"><ele>3</ele><time>2026-09-20T06:54:36.849Z</time></trkpt>
      <trkpt lat="-22.960663" lon="-43.207999"><ele>3</ele><time>2026-09-20T06:54:41.221Z</time></trkpt>
      <trkpt lat="-22.960667" lon="-43.207859"><ele>3</ele><time>2026-09-20T06:54:45.585Z</time></trkpt>
      <trkpt lat="-22.960635" lon="-43.207729"><ele>3</ele><time>2026-09-20T06:54:49.940Z</time></trkpt>
      <trkpt lat="-22.960647" lon="-43.207604"><ele>3</ele><time>2026-09-20T06:54:54.286Z</time></trkpt>
      <trkpt lat="-22.960630" lon="-43.207487"><ele>3</ele><time>2026-09-20T06:54:58.620Z</time></trkpt>
      <trkpt lat="-22.960642" lon="-43.207348"><ele>3</ele><time>2026-09-20T06:55:02.944Z</time></trkpt>
      <trkpt lat="-22.960644" lon="-43.207208"><ele>3</ele><time>2026-09-20T06:55:07.254Z</time></trkpt>
      <trkpt lat="-22.960623" lon="-43.207079"><ele>3</ele><time>2026-09-20T06:55:11.550Z</time></trkpt>
      <trkpt lat="-22.960627" lon="-43.206953"><ele>3</ele><time>2026-09-20T06:55:15.832Z</time></trkpt>
      <trkpt lat="-22.960626" lon="-43.206833"><ele>3</ele><time>2026-09-20T06:55:20.099Z</time></trkpt>
      <trkpt lat="-22.960637" lon="-43.206719"><ele>3</ele><time>2026-09-20T06:55:24.349Z</time></trkpt>
      <trkpt lat="-22.960665" lon="-43.206589"><ele>3</ele><time>2026-09-20T06:55:28.582Z</time></trkpt>
      <trkpt lat="-22.960672" lon="-43.206475"><ele>3</ele><time>2026-09-20T06:55:32.796Z</time></trkpt>
      <trkpt lat="-22.960670" lon="-43.206353"><ele>3</ele><time>2026-09-20T06:55:36.992Z</time></trkpt>
      <trkpt lat="-22.960692" lon="-43.206228"><ele>3</ele><time>2026-09-20T06:55:41.168Z</time></trkpt>
      <trkpt lat="-22.960694" lon="-43.206099"><ele>3</ele><time>2026-09-20T06:55:45.324Z</time></trkpt>
      <trkpt lat="-22.960723" lon="-43.205982"><ele>3</ele><time>2026-09-20T06:55:49.459Z</time></trkpt>
      <trkpt lat="-22.960726" lon="-43.205847"><ele>3</ele><time>2026-09-20T06:55:53.572Z</time></trkpt>
      <trkpt lat="-22.960743" lon="-43.205729"><ele>3</ele><time>2026-09-20T06:55:57.663Z</time></trkpt>
      <trkpt lat="-22.960783" lon="-43.205626"><ele>3</ele><time>2026-09-20T06:56:01.732Z</time></trkpt>
      <trkpt lat="-22.960803" lon="-43.205499"><ele>3</ele><time>2026-09-20T06:56:05.777Z</time></trkpt>
      <trkpt lat="-22.960829" lon="-43.205381"><ele>3</ele><time>2026-09-20T06:56:09.823Z</time></trkpt>
      <trkpt lat="-22.960843" lon="-43.205266"><ele>3</ele><time>2026-09-20T06:56:13.891Z</time></trkpt>
      <trkpt lat="-22.960888" lon="-43.205140"><ele>3</ele><time>2026-09-20T06:56:17.983Z</time></trkpt>
      <trkpt lat="-22.960904" lon="-43.205039"><ele>3</ele><time>2026-09-20T06:56:22.098Z</time></trkpt>
      <trkpt lat="-22.960940" lon="-43.204911"><ele>3</ele><time>2026-09-20T06:56:26.235Z</time></trkpt>
      <trkpt lat="-22.960976" lon="-43.204810"><ele>3</ele><time>2026-09-20T06:56:30.393Z</time></trkpt>
      <trkpt lat="-22.961023" lon="-43.204673"><ele>3</ele><time>2026-09-20T06:56:34.573Z</time></trkpt>
      <trkpt lat="-22.961066" lon="-43.204568"><ele>3</ele><time>2026-09-20T06:56:38.774Z</time></trkpt>
      <trkpt lat="-22.961123" lon="-43.204442"><ele>3</ele><time>2026-09-20T06:56:42.994Z</time></trkpt>
      <trkpt lat="-22.961160" lon="-43.204339"><ele>3</ele><time>2026-09-20T06:56:47.234Z</time></trkpt>
      <trkpt lat="-22.961198" lon="-43.204215"><ele>3</ele><time>2026-09-20T06:56:51.492Z</time></trkpt>
      <trkpt lat="-22.961251" lon="-43.204102"><ele>3</ele><time>2026-09-20T06:56:55.768Z</time></trkpt>
      <trkpt lat="-22.961311" lon="-43.204008"><ele>3</ele><time>2026-09-20T06:57:00.060Z</time></trkpt>
      <trkpt lat="-22.961356" lon="-43.203872"><ele>3</ele><time>2026-09-20T06:57:04.367Z</time></trkpt>
      <trkpt lat="-22.961410" lon="-43.203780"><ele>3</ele><time>2026-09-20T06:57:08.690Z</time></trkpt>
      <trkpt lat="-22.961482" lon="-43.203640"><ele>3</ele><time>2026-09-20T06:57:13.026Z</time></trkpt>
      <trkpt lat="-22.961520" lon="-43.203527"><ele>3</ele><time>2026-09-20T06:57:17.374Z</time></trkpt>
      <trkpt lat="-22.961573" lon="-43.203427"><ele>3</ele><time>2026-09-20T06:57:21.733Z</time></trkpt>
      <trkpt lat="-22.961632" lon="-43.203304"><ele>3</ele><time>2026-09-20T06:57:26.103Z</time></trkpt>
      <trkpt lat="-22.961699" lon="-43.203220"><ele>3</ele><time>2026-09-20T06:57:30.482Z</time></trkpt>
      <trkpt lat="-22.961764" lon="-43.203100"><ele>3</ele><time>2026-09-20T06:57:34.868Z</time></trkpt>
      <trkpt lat="-22.961837" lon="-43.202999"><ele>3</ele><time>2026-09-20T06:57:39.261Z</time></trkpt>
      <trkpt lat="-22.961907" lon="-43.202891"><ele>3</ele><time>2026-09-20T06:57:43.658Z</time></trkpt>
      <trkpt lat="-22.961974" lon="-43.202775"><ele>3</ele><time>2026-09-20T06:57:48.060Z</time></trkpt>
      <trkpt lat="-22.962052" lon="-43.202668"><ele>3</ele><time>2026-09-20T06:57:52.464Z</time></trkpt>
      <trkpt lat="-22.962111" lon="-43.202562"><ele>3</ele><time>2026-09-20T06:57:56.870Z</time></trkpt>
      <trkpt lat="-22.962170" lon="-43.202445"><ele>3</ele><time>2026-09-20T06:58:01.275Z</time></trkpt>
      <trkpt lat="-22.962254" lon="-43.202364"><ele>3</ele><time>2026-09-20T06:58:05.679Z</time></trkpt>
      <trkpt lat="-22.962322" lon="-43.202246"><ele>3</ele><time>2026-09-20T06:58:10.079Z</time></trkpt>
      <trkpt lat="-22.962412" lon="-43.202157"><ele>3</ele><time>2026-09-20T06:58:14.476Z</time></trkpt>
      <trkpt lat="-22.962490" lon="-43.202049"><ele>3</ele><time>2026-09-20T06:58:18.866Z</time></trkpt>
      <trkpt lat="-22.962549" lon="-43.201953"><ele>3</ele><time>2026-09-20T06:58:23.250Z</time></trkpt>
      <trkpt lat="-22.962617" lon="-43.201858"><ele>3</ele><time>2026-09-20T06:58:27.625Z</time></trkpt>
      <trkpt lat="-22.962708" lon="-43.201740"><ele>3</ele><time>2026-09-20T06:58:31.990Z</time></trkpt>
      <trkpt lat="-22.962792" lon="-43.201666"><ele>3</ele><time>2026-09-20T06:58:36.343Z</time></trkpt>
      <trkpt lat="-22.962877" lon="-43.201556"><ele>3</ele><time>2026-09-20T06:58:40.684Z</time></trkpt>
      <trkpt lat="-22.962957" lon="-43.201471"><ele>3</ele><time>2026-09-20T06:58:45.010Z</time></trkpt>
      <trkpt lat="-22.963043" lon="-43.201381"><ele>3</ele><time>2026-09-20T06:58:49.320Z</time></trkpt>
      <trkpt lat="-22.963125" lon="-43.201303"><ele>3</ele><time>2026-09-20T06:58:53.613Z</time></trkpt>
      <trkpt lat="-22.963195" lon="-43.201196"><ele>3</ele><time>2026-09-20T06:58:57.888Z</time></trkpt>
      <trkpt lat="-22.963271" lon="-43.201127"><ele>3</ele><time>2026-09-20T06:59:02.167Z</time></trkpt>
      <trkpt lat="-22.963383" lon="-43.201039"><ele>3</ele><time>2026-09-20T06:59:06.475Z</time></trkpt>
      <trkpt lat="-22.963454" lon="-43.200935"><ele>3</ele><time>2026-09-20T06:59:10.811Z</time></trkpt>
      <trkpt lat="-22.963548" lon="-43.200852"><ele>3</ele><time>2026-09-20T06:59:15.176Z</time></trkpt>
      <trkpt lat="-22.963655" lon="-43.200761"><ele>3</ele><time>2026-09-20T06:59:19.567Z</time></trkpt>
      <trkpt lat="-22.963745" lon="-43.200700"><ele>3</ele><time>2026-09-20T06:59:23.984Z</time></trkpt>
      <trkpt lat="-22.963836" lon="-43.200615"><ele>3</ele><time>2026-09-20T06:59:28.428Z</time></trkpt>
      <trkpt lat="-22.963941" lon="-43.200539"><ele>3</ele><time>2026-09-20T06:59:32.895Z</time></trkpt>
      <trkpt lat="-22.964025" lon="-43.200461"><ele>3</ele><time>2026-09-20T06:59:37.387Z</time></trkpt>
      <trkpt lat="-22.964135" lon="-43.200359"><ele>3</ele><time>2026-09-20T06:59:41.901Z</time></trkpt>
      <trkpt lat="-22.964222" lon="-43.200295"><ele>3</ele><time>2026-09-20T06:59:46.437Z</time></trkpt>
      <trkpt lat="-22.964316" lon="-43.200230"><ele>3</ele><time>2026-09-20T06:59:50.994Z</time></trkpt>
      <trkpt lat="-22.964425" lon="-43.200138"><ele>3</ele><time>2026-09-20T06:59:55.570Z</time></trkpt>
      <trkpt lat="-22.964531" lon="-43.200056"><ele>3</ele><time>2026-09-20T07:00:00.164Z</time></trkpt>
      <trkpt lat="-22.964646" lon="-43.200006"><ele>3</ele><time>2026-09-20T07:00:04.776Z</time></trkpt>
      <trkpt lat="-22.964756" lon="-43.199925"><ele>3</ele><time>2026-09-20T07:00:09.403Z</time></trkpt>
      <trkpt lat="-22.964861" lon="-43.199862"><ele>3</ele><time>2026-09-20T07:00:14.044Z</time></trkpt>
      <trkpt lat="-22.964962" lon="-43.199773"><ele>3</ele><time>2026-09-20T07:00:18.699Z</time></trkpt>
      <trkpt lat="-22.965067" lon="-43.199707"><ele>3</ele><time>2026-09-20T07:00:23.366Z</time></trkpt>
      <trkpt lat="-22.965186" lon="-43.199633"><ele>3</ele><time>2026-09-20T07:00:28.043Z</time></trkpt>
      <trkpt lat="-22.965304" lon="-43.199591"><ele>3</ele><time>2026-09-20T07:00:32.729Z</time></trkpt>
      <trkpt lat="-22.965407" lon="-43.199496"><ele>3</ele><time>2026-09-20T07:00:37.422Z</time></trkpt>
      <trkpt lat="-22.965515" lon="-43.199438"><ele>3</ele><time>2026-09-20T07:00:42.122Z</time></trkpt>
      <trkpt lat="-22.965630" lon="-43.199384"><ele>3</ele><time>2026-09-20T07:00:46.825Z</time></trkpt>
      <trkpt lat="-22.965752" lon="-43.199322"><ele>3</ele><time>2026-09-20T07:00:51.532Z</time></trkpt>
      <trkpt lat="-22.965866" lon="-43.199270"><ele>3</ele><time>2026-09-20T07:00:56.241Z</time></trkpt>
      <trkpt lat="-22.965983" lon="-43.199210"><ele>3</ele><time>2026-09-20T07:01:00.949Z</time></trkpt>
      <trkpt lat="-22.966102" lon="-43.199135"><ele>3</ele><time>2026-09-20T07:01:05.655Z</time></trkpt>
      <trkpt lat="-22.966215" lon="-43.199086"><ele>3</ele><time>2026-09-20T07:01:10.358Z</time></trkpt>
      <trkpt lat="-22.966330" lon="-43.199027"><ele>3</ele><time>2026-09-20T07:01:15.056Z</time></trkpt>
      <trkpt lat="-22.966462" lon="-43.198973"><ele>3</ele><time>2026-09-20T07:01:19.747Z</time></trkpt>
      <trkpt lat="-22.966563" lon="-43.198897"><ele>3</ele><time>2026-09-20T07:01:24.430Z</time></trkpt>
      <trkpt lat="-22.966671" lon="-43.198842"><ele>3</ele><time>2026-09-20T07:01:29.103Z</time></trkpt>
      <trkpt lat="-22.966792" lon="-43.198793"><ele>3</ele><time>2026-09-20T07:01:33.764Z</time></trkpt>
      <trkpt lat="-22.966919" lon="-43.198735"><ele>3</ele><time>2026-09-20T07:01:38.412Z</time></trkpt>
      <trkpt lat="-22.967037" lon="-43.198682"><ele>3</ele><time>2026-09-20T07:01:43.045Z</time></trkpt>
      <trkpt lat="-22.967164" lon="-43.198648"><ele>3</ele><time>2026-09-20T07:01:47.661Z</time></trkpt>
      <trkpt lat="-22.967279" lon="-43.198607"><ele>3</ele><time>2026-09-20T07:01:52.258Z</time></trkpt>
      <trkpt lat="-22.967381" lon="-43.198561"><ele>3</ele><time>2026-09-20T07:01:56.835Z</time></trkpt>
      <trkpt lat="-22.967509" lon="-43.198495"><ele>3</ele><time>2026-09-20T07:02:01.390Z</time></trkpt>
      <trkpt lat="-22.967630" lon="-43.198469"><ele>3</ele><time>2026-09-20T07:02:05.940Z</time></trkpt>
      <trkpt lat="-22.967720" lon="-43.198404"><ele>3</ele><time>2026-09-20T07:02:10.503Z</time></trkpt>
      <trkpt lat="-22.967842" lon="-43.198354"><ele>3</ele><time>2026-09-20T07:02:15.079Z</time></trkpt>
      <trkpt lat="-22.967963" lon="-43.198309"><ele>3</ele><time>2026-09-20T07:02:19.666Z</time></trkpt>
      <trkpt lat="-22.968086" lon="-43.198278"><ele>3</ele><time>2026-09-20T07:02:24.265Z</time></trkpt>
      <trkpt lat="-22.968213" lon="-43.198252"><ele>3</ele><time>2026-09-20T07:02:28.875Z</time></trkpt>
      <trkpt lat="-22.968329" lon="-43.198199"><ele>3</ele><time>2026-09-20T07:02:33.496Z</time></trkpt>
      <trkpt lat="-22.968448" lon="-43.198159"><ele>3</ele><time>2026-09-20T07:02:38.126Z</time></trkpt>
      <trkpt lat="-22.968572" lon="-43.198117"><ele>3</ele><time>2026-09-20T07:02:42.766Z</time></trkpt>
      <trkpt lat="-22.968699" lon="-43.198077"><ele>3</ele><time>2026-09-20T07:02:47.415Z</time></trkpt>
      <trkpt lat="-22.968831" lon="-43.198037"><ele>3</ele><time>2026-09-20T07:02:52.072Z</time></trkpt>
      <trkpt lat="-22.968934" lon="-43.198026"><ele>3</ele><time>2026-09-20T07:02:56.738Z</time></trkpt>
      <trkpt lat="-22.969071" lon="-43.197963"><ele>3</ele><time>2026-09-20T07:03:01.411Z</time></trkpt>
      <trkpt lat="-22.969195" lon="-43.197959"><ele>3</ele><time>2026-09-20T07:03:06.091Z</time></trkpt>
      <trkpt lat="-22.969312" lon="-43.197926"><ele>3</ele><time>2026-09-20T07:03:10.778Z</time></trkpt>
      <trkpt lat="-22.969432" lon="-43.197876"><ele>3</ele><time>2026-09-20T07:03:15.470Z</time></trkpt>
      <trkpt lat="-22.969550" lon="-43.197854"><ele>3</ele><time>2026-09-20T07:03:20.169Z</time></trkpt>
      <trkpt lat="-22.969676" lon="-43.197837"><ele>3</ele><time>2026-09-20T07:03:24.873Z</time></trkpt>
      <trkpt lat="-22.969813" lon="-43.197784"><ele>3</ele><time>2026-09-20T07:03:29.582Z</time></trkpt>
      <trkpt lat="-22.969946" lon="-43.197774"><ele>3</ele><time>2026-09-20T07:03:34.295Z</time></trkpt>
      <trkpt lat="-22.970076" lon="-43.197739"><ele>3</ele><time>2026-09-20T07:03:39.012Z</time></trkpt>
      <trkpt lat="-22.970186" lon="-43.197725"><ele>3</ele><time>2026-09-20T07:03:43.733Z</time></trkpt>
      <trkpt lat="-22.970316" lon="-43.197709"><ele>3</ele><time>2026-09-20T07:03:48.457Z</time></trkpt>
      <trkpt lat="-22.970459" lon="-43.197662"><ele>3</ele><time>2026-09-20T07:03:53.184Z</time></trkpt>
      <trkpt lat="-22.970580" lon="-43.197642"><ele>3</ele><time>2026-09-20T07:03:57.913Z</time></trkpt>
      <trkpt lat="-22.970714" lon="-43.197631"><ele>3</ele><time>2026-09-20T07:04:02.644Z</time></trkpt>
      <trkpt lat="-22.970824" lon="-43.197604"><ele>3</ele><time>2026-09-20T07:04:07.377Z</time></trkpt>
      <trkpt lat="-22.970952" lon="-43.197607"><ele>3</ele><time>2026-09-20T07:04:12.111Z</time></trkpt>
      <trkpt lat="-22.971084" lon="-43.197588"><ele>3</ele><time>2026-09-20T07:04:16.846Z</time></trkpt>
      <trkpt lat="-22.971199" lon="-43.197572"><ele>3</ele><time>2026-09-20T07:04:21.582Z</time></trkpt>
      <trkpt lat="-22.971327" lon="-43.197547"><ele>3</ele><time>2026-09-20T07:04:26.318Z</time></trkpt>
      <trkpt lat="-22.971483" lon="-43.197533"><ele>3</ele><time>2026-09-20T07:04:31.054Z</time></trkpt>
      <trkpt lat="-22.971598" lon="-43.197541"><ele>3</ele><time>2026-09-20T07:04:35.790Z</time></trkpt>
      <trkpt lat="-22.971738" lon="-43.197524"><ele>3</ele><time>2026-09-20T07:04:40.525Z</time></trkpt>
      <trkpt lat="-22.971864" lon="-43.197515"><ele>3</ele><time>2026-09-20T07:04:45.259Z</time></trkpt>
      <trkpt lat="-22.971981" lon="-43.197515"><ele>3</ele><time>2026-09-20T07:04:49.992Z</time></trkpt>
      <trkpt lat="-22.972118" lon="-43.197496"><ele>3</ele><time>2026-09-20T07:04:54.724Z</time></trkpt>
      <trkpt lat="-22.972252" lon="-43.197514"><ele>3</ele><time>2026-09-20T07:04:59.454Z</time></trkpt>
      <trkpt lat="-22.972385" lon="-43.197509"><ele>3</ele><time>2026-09-20T07:05:04.182Z</time></trkpt>
      <trkpt lat="-22.972493" lon="-43.197487"><ele>3</ele><time>2026-09-20T07:05:08.908Z</time></trkpt>
      <trkpt lat="-22.972620" lon="-43.197495"><ele>3</ele><time>2026-09-20T07:05:13.672Z</time></trkpt>
      <trkpt lat="-22.972758" lon="-43.197514"><ele>3</ele><time>2026-09-20T07:05:18.511Z</time></trkpt>
      <trkpt lat="-22.972906" lon="-43.197490"><ele>3</ele><time>2026-09-20T07:05:23.419Z</time></trkpt>
      <trkpt lat="-22.973035" lon="-43.197505"><ele>3</ele><time>2026-09-20T07:05:28.391Z</time></trkpt>
      <trkpt lat="-22.973163" lon="-43.197497"><ele>3</ele><time>2026-09-20T07:05:33.422Z</time></trkpt>
      <trkpt lat="-22.973320" lon="-43.197495"><ele>3</ele><time>2026-09-20T07:05:38.506Z</time></trkpt>
      <trkpt lat="-22.973435" lon="-43.197523"><ele>3</ele><time>2026-09-20T07:05:43.637Z</time></trkpt>
      <trkpt lat="-22.973584" lon="-43.197506"><ele>3</ele><time>2026-09-20T07:05:48.811Z</time></trkpt>
      <trkpt lat="-22.973729" lon="-43.197533"><ele>3</ele><time>2026-09-20T07:05:54.022Z</time></trkpt>
      <trkpt lat="-22.973865" lon="-43.197529"><ele>3</ele><time>2026-09-20T07:05:59.265Z</time></trkpt>
      <trkpt lat="-22.974022" lon="-43.197530"><ele>3</ele><time>2026-09-20T07:06:04.535Z</time></trkpt>
      <trkpt lat="-22.974171" lon="-43.197555"><ele>3</ele><time>2026-09-20T07:06:09.826Z</time></trkpt>
      <trkpt lat="-22.974291" lon="-43.197554"><ele>3</ele><time>2026-09-20T07:06:15.134Z</time></trkpt>
      <trkpt lat="-22.974439" lon="-43.197558"><ele>3</ele><time>2026-09-20T07:06:20.453Z</time></trkpt>
      <trkpt lat="-22.974582" lon="-43.197562"><ele>3</ele><time>2026-09-20T07:06:25.778Z</time></trkpt>
      <trkpt lat="-22.974743" lon="-43.197581"><ele>3</ele><time>2026-09-20T07:06:31.105Z</time></trkpt>
      <trkpt lat="-22.974874" lon="-43.197597"><ele>3</ele><time>2026-09-20T07:06:36.428Z</time></trkpt>
      <trkpt lat="-22.975026" lon="-43.197612"><ele>3</ele><time>2026-09-20T07:06:41.743Z</time></trkpt>
      <trkpt lat="-22.975164" lon="-43.197633"><ele>3</ele><time>2026-09-20T07:06:47.045Z</time></trkpt>
      <trkpt lat="-22.975322" lon="-43.197654"><ele>3</ele><time>2026-09-20T07:06:52.329Z</time></trkpt>
      <trkpt lat="-22.975448" lon="-43.197666"><ele>3</ele><time>2026-09-20T07:06:57.592Z</time></trkpt>
      <trkpt lat="-22.975599" lon="-43.197709"><ele>3</ele><time>2026-09-20T07:07:02.828Z</time></trkpt>
      <trkpt lat="-22.975725" lon="-43.197736"><ele>3</ele><time>2026-09-20T07:07:08.034Z</time></trkpt>
      <trkpt lat="-22.975879" lon="-43.197760"><ele>3</ele><time>2026-09-20T07:07:13.204Z</time></trkpt>
      <trkpt lat="-22.976006" lon="-43.197770"><ele>3</ele><time>2026-09-20T07:07:18.337Z</time></trkpt>
      <trkpt lat="-22.976160" lon="-43.197804"><ele>3</ele><time>2026-09-20T07:07:23.426Z</time></trkpt>
      <trkpt lat="-22.976272" lon="-43.197839"><ele>3</ele><time>2026-09-20T07:07:28.470Z</time></trkpt>
      <trkpt lat="-22.976407" lon="-43.197895"><ele>3</ele><time>2026-09-20T07:07:33.464Z</time></trkpt>
      <trkpt lat="-22.976553" lon="-43.197920"><ele>3</ele><time>2026-09-20T07:07:38.406Z</time></trkpt>
      <trkpt lat="-22.976680" lon="-43.197971"><ele>3</ele><time>2026-09-20T07:07:43.293Z</time></trkpt>
      <trkpt lat="-22.976783" lon="-43.198000"><ele>3</ele><time>2026-09-20T07:07:48.121Z</time></trkpt>
      <trkpt lat="-22.976917" lon="-43.198041"><ele>3</ele><time>2026-09-20T07:07:52.889Z</time></trkpt>
      <trkpt lat="-22.977044" lon="-43.198105"><ele>3</ele><time>2026-09-20T07:07:57.595Z</time></trkpt>
      <trkpt lat="-22.977146" lon="-43.198150"><ele>3</ele><time>2026-09-20T07:08:02.238Z</time></trkpt>
      <trkpt lat="-22.977282" lon="-43.198206"><ele>3</ele><time>2026-09-20T07:08:06.815Z</time></trkpt>
      <trkpt lat="-22.977393" lon="-43.198245"><ele>3</ele><time>2026-09-20T07:08:11.328Z</time></trkpt>
      <trkpt lat="-22.977505" lon="-43.198294"><ele>3</ele><time>2026-09-20T07:08:15.775Z</time></trkpt>
      <trkpt lat="-22.977590" lon="-43.198377"><ele>3</ele><time>2026-09-20T07:08:20.157Z</time></trkpt>
      <trkpt lat="-22.977687" lon="-43.198435"><ele>3</ele><time>2026-09-20T07:08:24.476Z</time></trkpt>
      <trkpt lat="-22.977814" lon="-43.198507"><ele>3</ele><time>2026-09-20T07:08:28.733Z</time></trkpt>
    </trkseg>
  </trk>
</gpx>
